CCSDS_OMM_VERS = 2.0
CREATION_DATE  = 
ORIGINATOR     = 

OBJECT_NAME    = STARLINK-37076
OBJECT_ID      = 2026-050G
CENTER_NAME    = EARTH
REF_FRAME      = TEME
TIME_SYSTEM    = UTC
MEAN_ELEMENT_THEORY = SGP/SGP4

EPOCH          = 2026-03-30T11:36:26.411328
MEAN_MOTION    = 15.80964728
ECCENTRICITY   = .0001351
INCLINATION    = 53.1590
RA_OF_ASC_NODE = 177.5783
ARG_OF_PERICENTER = 46.1440
MEAN_ANOMALY   = 313.9695

EPHEMERIS_TYPE = 0
CLASSIFICATION_TYPE = U
NORAD_CAT_ID   = 68173
ELEMENT_SET_NO = 999
REV_AT_EPOCH   = 376
BSTAR          = .14276E-2
MEAN_MOTION_DOT = .292038E-2
MEAN_MOTION_DDOT = 0

CCSDS_OMM_VERS = 2.0
CREATION_DATE  = 
ORIGINATOR     = 

OBJECT_NAME    = STARLINK-37078
OBJECT_ID      = 2026-050H
CENTER_NAME    = EARTH
REF_FRAME      = TEME
TIME_SYSTEM    = UTC
MEAN_ELEMENT_THEORY = SGP/SGP4

EPOCH          = 2026-03-30T11:35:21.474816
MEAN_MOTION    = 15.80993679
ECCENTRICITY   = .0001375
INCLINATION    = 53.1589
RA_OF_ASC_NODE = 177.5734
ARG_OF_PERICENTER = 51.3082
MEAN_ANOMALY   = 308.8064

EPHEMERIS_TYPE = 0
CLASSIFICATION_TYPE = U
NORAD_CAT_ID   = 68174
ELEMENT_SET_NO = 999
REV_AT_EPOCH   = 376
BSTAR          = .17374E-2
MEAN_MOTION_DOT = .358829E-2
MEAN_MOTION_DDOT = 0

CCSDS_OMM_VERS = 2.0
CREATION_DATE  = 
ORIGINATOR     = 

OBJECT_NAME    = STARLINK-36886
OBJECT_ID      = 2026-050J
CENTER_NAME    = EARTH
REF_FRAME      = TEME
TIME_SYSTEM    = UTC
MEAN_ELEMENT_THEORY = SGP/SGP4

EPOCH          = 2026-03-30T13:05:19.206816
MEAN_MOTION    = 15.80976308
ECCENTRICITY   = .0002387
INCLINATION    = 53.1590
RA_OF_ASC_NODE = 177.2511
ARG_OF_PERICENTER = 17.3873
MEAN_ANOMALY   = 342.7231

EPHEMERIS_TYPE = 0
CLASSIFICATION_TYPE = U
NORAD_CAT_ID   = 68175
ELEMENT_SET_NO = 999
REV_AT_EPOCH   = 377
BSTAR          = .1955E-2
MEAN_MOTION_DOT = .405771E-2
MEAN_MOTION_DDOT = 0

CCSDS_OMM_VERS = 2.0
CREATION_DATE  = 
ORIGINATOR     = 

OBJECT_NAME    = STARLINK-36905
OBJECT_ID      = 2026-050K
CENTER_NAME    = EARTH
REF_FRAME      = TEME
TIME_SYSTEM    = UTC
MEAN_ELEMENT_THEORY = SGP/SGP4

EPOCH          = 2026-03-30T11:33:11.738304
MEAN_MOTION    = 15.80997478
ECCENTRICITY   = .0001514
INCLINATION    = 53.1586
RA_OF_ASC_NODE = 177.5631
ARG_OF_PERICENTER = 45.1879
MEAN_ANOMALY   = 314.9266

EPHEMERIS_TYPE = 0
CLASSIFICATION_TYPE = U
NORAD_CAT_ID   = 68176
ELEMENT_SET_NO = 999
REV_AT_EPOCH   = 376
BSTAR          = .17271E-2
MEAN_MOTION_DOT = .356682E-2
MEAN_MOTION_DDOT = 0

CCSDS_OMM_VERS = 2.0
CREATION_DATE  = 
ORIGINATOR     = 

OBJECT_NAME    = STARLINK-36668
OBJECT_ID      = 2026-050L
CENTER_NAME    = EARTH
REF_FRAME      = TEME
TIME_SYSTEM    = UTC
MEAN_ELEMENT_THEORY = SGP/SGP4

EPOCH          = 2026-03-30T11:32:07.118016
MEAN_MOTION    = 15.80990002
ECCENTRICITY   = .0001128
INCLINATION    = 53.1592
RA_OF_ASC_NODE = 177.5577
ARG_OF_PERICENTER = 75.1089
MEAN_ANOMALY   = 285.0059

EPHEMERIS_TYPE = 0
CLASSIFICATION_TYPE = U
NORAD_CAT_ID   = 68177
ELEMENT_SET_NO = 999
REV_AT_EPOCH   = 376
BSTAR          = .17546E-2
MEAN_MOTION_DOT = .362489E-2
MEAN_MOTION_DDOT = 0

CCSDS_OMM_VERS = 2.0
CREATION_DATE  = 
ORIGINATOR     = 

OBJECT_NAME    = STARLINK-36677
OBJECT_ID      = 2026-050M
CENTER_NAME    = EARTH
REF_FRAME      = TEME
TIME_SYSTEM    = UTC
MEAN_ELEMENT_THEORY = SGP/SGP4

EPOCH          = 2026-03-30T11:31:02.080416
MEAN_MOTION    = 15.80974709
ECCENTRICITY   = .0001392
INCLINATION    = 53.1593
RA_OF_ASC_NODE = 177.5522
ARG_OF_PERICENTER = 97.0606
MEAN_ANOMALY   = 263.0575

EPHEMERIS_TYPE = 0
CLASSIFICATION_TYPE = U
NORAD_CAT_ID   = 68178
ELEMENT_SET_NO = 999
REV_AT_EPOCH   = 376
BSTAR          = .14212E-2
MEAN_MOTION_DOT = .290811E-2
MEAN_MOTION_DDOT = 0

CCSDS_OMM_VERS = 2.0
CREATION_DATE  = 
ORIGINATOR     = 

OBJECT_NAME    = STARLINK-37052
OBJECT_ID      = 2026-050N
CENTER_NAME    = EARTH
REF_FRAME      = TEME
TIME_SYSTEM    = UTC
MEAN_ELEMENT_THEORY = SGP/SGP4

EPOCH          = 2026-03-30T11:29:57.437664
MEAN_MOTION    = 15.80935034
ECCENTRICITY   = .0001115
INCLINATION    = 53.1591
RA_OF_ASC_NODE = 177.5474
ARG_OF_PERICENTER = 79.7803
MEAN_ANOMALY   = 280.3346

EPHEMERIS_TYPE = 0
CLASSIFICATION_TYPE = U
NORAD_CAT_ID   = 68179
ELEMENT_SET_NO = 999
REV_AT_EPOCH   = 376
BSTAR          = .11588E-2
MEAN_MOTION_DOT = .235012E-2
MEAN_MOTION_DDOT = 0

CCSDS_OMM_VERS = 2.0
CREATION_DATE  = 
ORIGINATOR     = 

OBJECT_NAME    = STARLINK-37035
OBJECT_ID      = 2026-050P
CENTER_NAME    = EARTH
REF_FRAME      = TEME
TIME_SYSTEM    = UTC
MEAN_ELEMENT_THEORY = SGP/SGP4

EPOCH          = 2026-03-30T11:28:52.615200
MEAN_MOTION    = 15.80970855
ECCENTRICITY   = .000081
INCLINATION    = 53.1591
RA_OF_ASC_NODE = 177.5429
ARG_OF_PERICENTER = 62.8902
MEAN_ANOMALY   = 297.2204

EPHEMERIS_TYPE = 0
CLASSIFICATION_TYPE = U
NORAD_CAT_ID   = 68180
ELEMENT_SET_NO = 999
REV_AT_EPOCH   = 376
BSTAR          = .15202E-2
MEAN_MOTION_DOT = .311849E-2
MEAN_MOTION_DDOT = 0

CCSDS_OMM_VERS = 2.0
CREATION_DATE  = 
ORIGINATOR     = 

OBJECT_NAME    = STARLINK-37032
OBJECT_ID      = 2026-050Q
CENTER_NAME    = EARTH
REF_FRAME      = TEME
TIME_SYSTEM    = UTC
MEAN_ELEMENT_THEORY = SGP/SGP4

EPOCH          = 2026-03-30T11:27:47.801376
MEAN_MOTION    = 15.80987870
ECCENTRICITY   = .0000653
INCLINATION    = 53.1590
RA_OF_ASC_NODE = 177.5377
ARG_OF_PERICENTER = 85.4317
MEAN_ANOMALY   = 274.6780

EPHEMERIS_TYPE = 0
CLASSIFICATION_TYPE = U
NORAD_CAT_ID   = 68181
ELEMENT_SET_NO = 999
REV_AT_EPOCH   = 376
BSTAR          = .17189E-2
MEAN_MOTION_DOT = .354756E-2
MEAN_MOTION_DDOT = 0

CCSDS_OMM_VERS = 2.0
CREATION_DATE  = 
ORIGINATOR     = 

OBJECT_NAME    = STARLINK-37082
OBJECT_ID      = 2026-050R
CENTER_NAME    = EARTH
REF_FRAME      = TEME
TIME_SYSTEM    = UTC
MEAN_ELEMENT_THEORY = SGP/SGP4

EPOCH          = 2026-03-30T11:26:42.997056
MEAN_MOTION    = 15.80982867
ECCENTRICITY   = .0000656
INCLINATION    = 53.1590
RA_OF_ASC_NODE = 177.5324
ARG_OF_PERICENTER = 78.0590
MEAN_ANOMALY   = 282.0507

EPHEMERIS_TYPE = 0
CLASSIFICATION_TYPE = U
NORAD_CAT_ID   = 68182
ELEMENT_SET_NO = 999
REV_AT_EPOCH   = 376
BSTAR          = .17474E-2
MEAN_MOTION_DOT = .360825E-2
MEAN_MOTION_DDOT = 0

CCSDS_OMM_VERS = 2.0
CREATION_DATE  = 
ORIGINATOR     = 

OBJECT_NAME    = STARLINK-37102
OBJECT_ID      = 2026-050S
CENTER_NAME    = EARTH
REF_FRAME      = TEME
TIME_SYSTEM    = UTC
MEAN_ELEMENT_THEORY = SGP/SGP4

EPOCH          = 2026-03-30T11:25:38.178912
MEAN_MOTION    = 15.80955861
ECCENTRICITY   = .0001144
INCLINATION    = 53.1591
RA_OF_ASC_NODE = 177.5279
ARG_OF_PERICENTER = 81.1680
MEAN_ANOMALY   = 278.9473

EPHEMERIS_TYPE = 0
CLASSIFICATION_TYPE = U
NORAD_CAT_ID   = 68183
ELEMENT_SET_NO = 999
REV_AT_EPOCH   = 376
BSTAR          = .11353E-2
MEAN_MOTION_DOT = .230335E-2
MEAN_MOTION_DDOT = 0

CCSDS_OMM_VERS = 2.0
CREATION_DATE  = 
ORIGINATOR     = 

OBJECT_NAME    = STARLINK-36964
OBJECT_ID      = 2026-050T
CENTER_NAME    = EARTH
REF_FRAME      = TEME
TIME_SYSTEM    = UTC
MEAN_ELEMENT_THEORY = SGP/SGP4

EPOCH          = 2026-03-30T11:24:33.424704
MEAN_MOTION    = 15.80939369
ECCENTRICITY   = .0000867
INCLINATION    = 53.1590
RA_OF_ASC_NODE = 177.5220
ARG_OF_PERICENTER = 64.4560
MEAN_ANOMALY   = 295.6552

EPHEMERIS_TYPE = 0
CLASSIFICATION_TYPE = U
NORAD_CAT_ID   = 68184
ELEMENT_SET_NO = 999
REV_AT_EPOCH   = 376
BSTAR          = .13269E-2
MEAN_MOTION_DOT = .270392E-2
MEAN_MOTION_DDOT = 0

