STARLINK-37076          
1 68173U 26050G   26089.48363902  .00292038  00000+0  14276-2 0  9993
2 68173  53.1590 177.5783 0001351  46.1440 313.9695 15.80964728  3769
STARLINK-37078          
1 68174U 26050H   26089.48288744  .00358829  00000+0  17374-2 0  9997
2 68174  53.1589 177.5734 0001375  51.3082 308.8064 15.80993679  3760
STARLINK-36886          
1 68175U 26050J   26089.54536119  .00405771  00000+0  19550-2 0  9994
2 68175  53.1590 177.2511 0002387  17.3873 342.7231 15.80976308  3771
STARLINK-36905          
1 68176U 26050K   26089.48138586  .00356682  00000+0  17271-2 0  9998
2 68176  53.1586 177.5631 0001514  45.1879 314.9266 15.80997478  3768
STARLINK-36668          
1 68177U 26050L   26089.48063794  .00362489  00000+0  17546-2 0  9994
2 68177  53.1592 177.5577 0001128  75.1089 285.0059 15.80990002  3766
STARLINK-36677          
1 68178U 26050M   26089.47988519  .00290811  00000+0  14212-2 0  9991
2 68178  53.1593 177.5522 0001392  97.0606 263.0575 15.80974709  3764
STARLINK-37052          
1 68179U 26050N   26089.47913701  .00235012  00000+0  11588-2 0  9998
2 68179  53.1591 177.5474 0001115  79.7803 280.3346 15.80935034  3764
STARLINK-37035          
1 68180U 26050P   26089.47838675  .00311849  00000+0  15202-2 0  9996
2 68180  53.1591 177.5429 0000810  62.8902 297.2204 15.80970855  3760
STARLINK-37032          
1 68181U 26050Q   26089.47763659  .00354756  00000+0  17189-2 0  9996
2 68181  53.1590 177.5377 0000653  85.4317 274.6780 15.80987870  3761
STARLINK-37082          
1 68182U 26050R   26089.47688654  .00360825  00000+0  17474-2 0  9999
2 68182  53.1590 177.5324 0000656  78.0590 282.0507 15.80982867  3769
STARLINK-37102          
1 68183U 26050S   26089.47613633  .00230335  00000+0  11353-2 0  9997
2 68183  53.1591 177.5279 0001144  81.1680 278.9473 15.80955861  3768
STARLINK-36964          
1 68184U 26050T   26089.47538686  .00270392  00000+0  13269-2 0  9997
2 68184  53.1590 177.5220 0000867  64.4560 295.6552 15.80939369  3765
